OBJECT_NAME,OBJECT_ID,EPOCH,MEAN_MOTION,ECCENTRICITY,INCLINATION,RA_OF_ASC_NODE,ARG_OF_PERICENTER,MEAN_ANOMALY,EPHEMERIS_TYPE,CLASSIFICATION_TYPE,NORAD_CAT_ID,ELEMENT_SET_NO,REV_AT_EPOCH,BSTAR,MEAN_MOTION_DOT,MEAN_MOTION_DDOT
STARLINK-11696 [DTC],2025-124H,2026-05-18T19:13:20.078976,15.70826363,.00011005,43.0017,326.3730,198.4083,161.6745,0,U,64324,999,5386,.1066539E-2,.138627E-2,0
STARLINK-11698 [DTC],2025-124J,2026-05-18T20:53:52.361088,15.70922917,.00046567,42.9991,326.0421,302.7502,57.2917,0,U,64325,999,5387,.16197738E-2,.213636E-2,0
STARLINK-11678 [DTC],2025-124K,2026-05-19T05:00:57.792672,15.70877381,.0001304,42.9986,324.2883,34.3317,325.7635,0,U,64326,999,5392,.10161506E-2,.132238E-2,0
STARLINK-11674 [DTC],2025-124L,2026-05-19T00:00:02.000160,15.70800862,.00016884,43.0004,325.1016,273.8500,163.4580,0,U,64327,999,595,.47865674E-3,.61323E-3,0
STARLINK-11707 [DTC],2025-124M,2026-05-18T21:00:12.220416,15.70957044,.00036285,43.0018,326.0777,262.0573,97.9883,0,U,64328,999,5387,.10989791E-2,.143766E-2,0
STARLINK-11734 [DTC],2025-124N,2026-05-19T05:31:20.884512,15.70868088,.0000492,42.9986,323.5618,273.8063,86.2749,0,U,64329,999,5393,.96416584E-3,.125295E-2,0
STARLINK-34252,2025-124P,2026-05-19T05:03:13.241952,15.27539322,.00010866,43.0009,83.6244,259.4799,100.5930,0,U,64330,999,5256,.65061004E-4,.1527E-4,0
STARLINK-34050,2025-124Q,2026-05-19T04:48:23.449824,15.27588827,.00008924,43.0002,83.5409,270.5687,89.5062,0,U,64331,999,5362,.43225991E-3,.11655E-3,0
STARLINK-33782,2025-124R,2026-05-19T06:05:55.032288,15.27593647,.0001493,42.9997,83.0819,293.3441,66.7254,0,U,64332,999,5257,.86890427E-3,.23735E-3,0
STARLINK-34207,2025-124S,2026-05-19T04:57:38.592288,15.27613669,.00010808,43.0006,83.5914,273.8929,86.1799,0,U,64333,999,5256,.45096246E-3,.12181E-3,0
STARLINK-34260,2025-124T,2026-05-19T05:08:46.482432,15.27606327,.00010977,43.0026,83.6472,247.8921,112.1814,0,U,64334,999,5256,.10054733E-2,.27532E-3,0
STARLINK-33855,2025-124U,2026-05-19T06:00:20.392128,15.27590269,.00014535,43.0023,83.0489,274.0105,86.0581,0,U,64335,999,5257,.41239759E-3,.11107E-3,0
STARLINK-34223,2025-124V,2026-05-19T02:36:04.592736,15.27593187,.00017743,43.0020,80.2433,260.7556,99.3095,0,U,64336,999,5259,.4311002E-3,.11624E-3,0
STARLINK-34216,2025-124W,2026-05-18T20:15:03.926880,15.27570890,.00015403,43.0050,85.1607,263.4305,96.6372,0,U,64337,999,5251,.40138674E-3,.10796E-3,0
STARLINK-34218,2025-124X,2026-05-19T04:26:53.042496,15.27584052,.00015392,43.0019,79.9683,270.3059,89.7616,0,U,64338,999,5260,.38342118E-3,.10305E-3,0
STARLINK-34017,2025-124Y,2026-05-19T04:42:50.213664,15.27589134,.00012174,43.0007,83.5057,265.0613,95.0099,0,U,64339,999,5256,.41858056E-3,.11277E-3,0
QPS-SAR-11 (YAMATSUMI-I),2025-125A,2026-05-18T22:07:27.871104,15.01327801,.0011089,42.0095,353.1025,295.5519,64.4160,0,U,64340,999,5122,.23065E-3,.2837E-4,0
STARLINK-33977,2025-126A,2026-05-19T07:44:06.126432,14.98336112,.00037145,70.0005,216.3023,268.2429,91.8305,0,U,64344,999,5247,.29721806E-3,.3456E-4,0
STARLINK-34426,2025-126B,2026-05-19T07:37:51.028608,14.98343221,.00036405,70.0003,216.2821,266.3327,93.7416,0,U,64345,999,5126,.50976688E-4,.515E-5,0
STARLINK-34437,2025-126C,2026-05-19T06:43:48.322560,14.98330717,.00035285,70.0009,216.5542,268.5191,91.5564,0,U,64346,999,5125,.27326113E-3,.3169E-4,0
STARLINK-34407,2025-126D,2026-05-19T06:00:00.999648,14.98345160,.00038857,70.0006,216.6515,266.5862,266.1045,0,U,64347,999,577,-.66088944E-3,-.7973E-4,0
STARLINK-34274,2025-126E,2026-05-19T07:07:50.443968,14.98334711,.00035745,70.0003,216.6139,267.2089,92.8661,0,U,64348,999,5125,.29570827E-3,.3438E-4,0
STARLINK-34301,2025-126F,2026-05-19T07:43:53.066208,14.98329994,.00034577,70.0005,216.2966,267.9342,92.1421,0,U,64349,999,5126,.26185695E-3,.3033E-4,0
STARLINK-34425,2025-126G,2026-05-19T06:37:47.084160,14.98336944,.00036632,70.0006,216.5359,267.2270,92.8470,0,U,64350,999,5125,.31479089E-3,.3666E-4,0
STARLINK-34389,2025-126H,2026-05-19T06:20:00.680064,14.98331833,.00036047,70.0003,216.4892,268.7732,91.3014,0,U,64351,999,5125,.49385441E-3,.5805E-4,0
STARLINK-34385,2025-126J,2026-05-19T06:55:48.222048,14.98336914,.00038568,69.9996,216.5861,272.3831,87.6886,0,U,64352,999,5125,.83057698E-4,.898E-5,0
STARLINK-34431,2025-126K,2026-05-19T07:38:05.292384,14.98336802,.00035915,70.0002,216.2853,266.8322,93.2426,0,U,64353,999,5126,.20361501E-3,.2338E-4,0
STARLINK-34473,2025-126L,2026-05-19T06:19:46.701408,14.98325671,.00037253,70.0047,216.4999,269.0772,90.9960,0,U,64354,999,5125,.72019015E-3,.851E-4,0
STARLINK-34270,2025-126M,2026-05-19T06:25:45.783264,14.98336492,.00034781,70.0007,216.5080,269.1363,90.9398,0,U,64355,999,5245,.33264101E-3,.3879E-4,0
STARLINK-34397,2025-126N,2026-05-19T07:01:50.631168,14.98326029,.000365,70.0003,216.5945,268.3619,91.7122,0,U,64356,999,5125,.2902085E-3,.3371E-4,0
STARLINK-34454,2025-126P,2026-05-19T07:08:05.539776,14.98328377,.00032732,70.0000,216.6080,269.4662,90.6122,0,U,64357,999,5125,.29974745E-3,.3485E-4,0
STARLINK-34436,2025-126Q,2026-05-19T07:26:04.004448,14.98336178,.00038277,70.0002,216.2485,266.6252,93.4470,0,U,64358,999,5126,.27805863E-3,.3227E-4,0
STARLINK-34291,2025-126R,2026-05-19T07:50:06.598464,14.98336262,.00036974,70.0001,216.3052,271.5109,88.5627,0,U,64359,999,5126,.25711702E-3,.2977E-4,0
STARLINK-34458,2025-126S,2026-05-19T04:50:05.973792,14.98039695,.00028122,70.0042,216.6752,342.5249,17.5813,0,U,64360,999,5124,.17401155E-1,.212357E-2,0
STARLINK-34243,2025-126T,2026-05-19T06:31:46.882560,14.98330870,.000365,70.0007,216.5224,267.9024,92.1717,0,U,64361,999,5125,.28089689E-3,.326E-4,0
STARLINK-34335,2025-126U,2026-05-19T07:31:50.199744,14.98339648,.00037576,70.0003,216.2680,266.1288,93.9441,0,U,64362,999,5126,.16053191E-3,.1823E-4,0
STARLINK-34408,2025-126V,2026-05-19T07:19:49.223712,14.98335440,.00039539,70.0004,216.2371,267.5308,92.5399,0,U,64363,999,5126,.28705564E-3,.3334E-4,0
STARLINK-34476,2025-126W,2026-05-19T07:49:52.513536,14.98336202,.00035239,70.0005,216.3094,266.4886,93.5870,0,U,64364,999,5126,.29367206E-3,.3413E-4,0
STARLINK-34479,2025-126X,2026-05-19T07:13:51.031776,14.98334312,.00036898,70.0003,216.6214,267.3002,92.7735,0,U,64365,999,5125,.28982597E-3,.3367E-4,0
STARLINK-34484,2025-126Y,2026-05-19T07:25:49.938528,14.98332000,.00034497,70.0001,216.2484,268.3824,91.6940,0,U,64366,999,5247,.18183263E-3,.2077E-4,0
STARLINK-34483,2025-126Z,2026-05-19T07:32:04.609536,14.98337003,.00038331,70.0003,216.2625,264.2489,95.8233,0,U,64367,999,5126,.29408284E-3,.3418E-4,0
STARLINK-34457,2025-126AA,2026-05-19T06:49:48.998496,14.98330414,.00036938,70.0004,216.5628,268.2473,91.8263,0,U,64368,999,5125,.31311513E-3,.3645E-4,0
STARLINK-34444,2025-126AB,2026-05-19T06:56:03.902784,14.98330162,.00035489,70.0005,216.5770,267.9171,92.1582,0,U,64369,999,5125,.29309428E-3,.3406E-4,0
STARLINK-11732 [DTC],2025-127A,2026-05-17T18:05:01.459104,15.70903303,.00013374,42.9983,28.3032,216.4866,143.5911,0,U,64370,999,5436,.9603544E-3,.124979E-2,0
STARLINK-11731 [DTC],2025-127B,2026-05-18T23:27:35.510112,15.70853056,.0002727,43.0007,21.1489,296.3310,63.7278,0,U,64371,999,5455,.87618174E-3,.113599E-2,0
STARLINK-11746 [DTC],2025-127C,2026-05-18T08:57:41.333184,15.70867226,.00011854,43.0014,24.3437,301.1544,58.9207,0,U,64372,999,5446,.8556141E-3,.11094E-2,0
STARLINK-11748 [DTC],2025-127D,2026-05-18T02:22:21.840096,15.70867354,.00021299,43.0016,26.6100,254.2098,105.8535,0,U,64373,999,5441,.10636386E-2,.138491E-2,0
STARLINK-11739 [DTC],2025-127E,2026-05-18T02:28:30.789696,15.70840357,.00018738,43.0021,25.7476,255.7441,104.3218,0,U,64374,999,5442,.11233757E-2,.146263E-2,0
STARLINK-11738 [DTC],2025-127F,2026-05-18T16:05:04.802208,15.70955049,.00029396,43.0005,23.1509,272.1693,87.8838,0,U,64375,999,5450,.14921325E-2,.196573E-2,0
STARLINK-11745 [DTC],2025-127G,2026-05-18T22:57:00.387936,15.70843798,.0001303,42.9992,20.9782,274.2233,85.8486,0,U,64376,999,5455,.98281E-3,.127633E-2,0
STARLINK-11742 [DTC],2025-127H,2026-05-18T23:19:56.669952,15.70931338,.0001584,43.0010,21.1057,259.9995,100.0693,0,U,64377,999,5455,.13769E-2,.18081E-2,0
STARLINK-11711 [DTC],2025-127J,2026-05-19T00:00:02.000160,15.70872752,.00016263,43.0011,20.4923,270.4785,67.5768,0,U,64378,999,599,-.90156368E-3,-.114711E-2,0
STARLINK-11743 [DTC],2025-127K,2026-05-18T02:13:24.292128,15.70859770,.00017705,43.0017,26.5570,272.6472,87.4193,0,U,64379,999,5441,.11521957E-2,.150221E-2,0
STARLINK-11744 [DTC],2025-127L,2026-05-19T06:00:00.999648,15.70891584,.00014908,43.0010,19.3568,269.5275,253.6259,0,U,64380,999,604,-.10926068E-2,-.138635E-2,0
STARLINK-11692 [DTC],2025-127M,2026-05-19T01:52:28.862976,15.70846345,.00020736,43.0007,20.1665,263.6191,96.4441,0,U,64381,999,5468,.99703504E-3,.129535E-2,0
STARLINK-11740 [DTC],2025-127N,2026-05-18T02:36:09.186624,15.70884164,.00023681,43.0029,25.7873,258.3514,101.7088,0,U,64382,999,5442,.10344926E-2,.13472E-2,0
STARLINK-34299,2025-127P,2026-05-19T07:31:34.802400,15.27588284,.00007844,42.9997,141.3233,268.1402,91.9360,0,U,64383,999,5321,.56866552E-3,.15423E-3,0
STARLINK-34271,2025-127Q,2026-05-19T07:14:53.513664,15.27581973,.00011752,42.9988,141.2309,273.1547,86.9170,0,U,64384,999,5326,.24815487E-3,.6573E-4,0
STARLINK-34100,2025-127R,2026-05-19T07:20:26.625408,15.27583027,.00009113,42.9991,141.2625,264.6135,95.4612,0,U,64385,999,5321,.29668457E-3,.7912E-4,0
STARLINK-34269,2025-127S,2026-05-18T08:15:38.863584,15.27578426,.00001371,42.9979,146.0771,113.4819,246.6047,0,U,64386,999,5312,.42677287E-3,.115E-3,0
STARLINK-34351,2025-127T,2026-05-18T17:38:44.408544,15.27591404,.00018762,43.0018,143.8526,286.7037,73.3608,0,U,64387,999,5318,.29481016E-3,.7862E-4,0
STARLINK-34198,2025-127U,2026-05-18T23:53:29.884128,15.27591628,.00015613,43.0009,142.3705,279.9860,80.0815,0,U,64388,999,5322,.31754502E-3,.8489E-4,0
STARLINK-34279,2025-127V,2026-05-18T09:42:36.303840,15.27578664,.00014511,43.0022,146.5408,269.5318,90.5367,0,U,64389,999,5312,.23153654E-3,.6114E-4,0
